CCSDS_OMM_VERS = 2.0
CREATION_DATE  = 
ORIGINATOR     = 

OBJECT_NAME    = STARLINK-36640
OBJECT_ID      = 2026-018M
CENTER_NAME    = EARTH
REF_FRAME      = TEME
TIME_SYSTEM    = UTC
MEAN_ELEMENT_THEORY = SGP/SGP4

EPOCH          = 2026-02-25T03:53:54.474720
MEAN_MOTION    = 15.75235043
ECCENTRICITY   = .0001344
INCLINATION    = 97.2852
RA_OF_ASC_NODE = 121.3199
ARG_OF_PERICENTER = 72.7306
MEAN_ANOMALY   = 287.4106

EPHEMERIS_TYPE = 0
CLASSIFICATION_TYPE = U
NORAD_CAT_ID   = 67600
ELEMENT_SET_NO = 999
REV_AT_EPOCH   = 533
BSTAR          = .28933E-3
MEAN_MOTION_DOT = .43329E-3
MEAN_MOTION_DDOT = 0

CCSDS_OMM_VERS = 2.0
CREATION_DATE  = 
ORIGINATOR     = 

OBJECT_NAME    = STARLINK-36635
OBJECT_ID      = 2026-018N
CENTER_NAME    = EARTH
REF_FRAME      = TEME
TIME_SYSTEM    = UTC
MEAN_ELEMENT_THEORY = SGP/SGP4

EPOCH          = 2026-02-25T03:08:10.669920
MEAN_MOTION    = 15.75253136
ECCENTRICITY   = .0002592
INCLINATION    = 97.2846
RA_OF_ASC_NODE = 121.3643
ARG_OF_PERICENTER = 119.1658
MEAN_ANOMALY   = 240.9867

EPHEMERIS_TYPE = 0
CLASSIFICATION_TYPE = U
NORAD_CAT_ID   = 67601
ELEMENT_SET_NO = 999
REV_AT_EPOCH   = 533
BSTAR          = .15853E-2
MEAN_MOTION_DOT = .243883E-2
MEAN_MOTION_DDOT = 0

CCSDS_OMM_VERS = 2.0
CREATION_DATE  = 
ORIGINATOR     = 

OBJECT_NAME    = STARLINK-36631
OBJECT_ID      = 2026-018P
CENTER_NAME    = EARTH
REF_FRAME      = TEME
TIME_SYSTEM    = UTC
MEAN_ELEMENT_THEORY = SGP/SGP4

EPOCH          = 2026-02-25T04:00:01.999584
MEAN_MOTION    = 15.75219766
ECCENTRICITY   = .0001417
INCLINATION    = 97.2847
RA_OF_ASC_NODE = 121.4245
ARG_OF_PERICENTER = 84.4727
MEAN_ANOMALY   = 165.7121

EPHEMERIS_TYPE = 0
CLASSIFICATION_TYPE = U
NORAD_CAT_ID   = 67602
ELEMENT_SET_NO = 999
REV_AT_EPOCH   = 533
BSTAR          = -.31754E-3
MEAN_MOTION_DOT = -.47293E-3
MEAN_MOTION_DDOT = 0

CCSDS_OMM_VERS = 2.0
CREATION_DATE  = 
ORIGINATOR     = 

OBJECT_NAME    = STARLINK-36626
OBJECT_ID      = 2026-018Q
CENTER_NAME    = EARTH
REF_FRAME      = TEME
TIME_SYSTEM    = UTC
MEAN_ELEMENT_THEORY = SGP/SGP4

EPOCH          = 2026-02-25T03:17:19.459392
MEAN_MOTION    = 15.75262456
ECCENTRICITY   = .0001048
INCLINATION    = 97.2851
RA_OF_ASC_NODE = 121.3566
ARG_OF_PERICENTER = 75.8967
MEAN_ANOMALY   = 284.2414

EPHEMERIS_TYPE = 0
CLASSIFICATION_TYPE = U
NORAD_CAT_ID   = 67603
ELEMENT_SET_NO = 999
REV_AT_EPOCH   = 533
BSTAR          = .10879E-2
MEAN_MOTION_DOT = .165845E-2
MEAN_MOTION_DDOT = 0

CCSDS_OMM_VERS = 2.0
CREATION_DATE  = 
ORIGINATOR     = 

OBJECT_NAME    = STARLINK-36605
OBJECT_ID      = 2026-018R
CENTER_NAME    = EARTH
REF_FRAME      = TEME
TIME_SYSTEM    = UTC
MEAN_ELEMENT_THEORY = SGP/SGP4

EPOCH          = 2026-02-25T03:42:43.997760
MEAN_MOTION    = 15.75234987
ECCENTRICITY   = .0001535
INCLINATION    = 97.2850
RA_OF_ASC_NODE = 121.3302
ARG_OF_PERICENTER = 78.4149
MEAN_ANOMALY   = 281.7288

EPHEMERIS_TYPE = 0
CLASSIFICATION_TYPE = U
NORAD_CAT_ID   = 67604
ELEMENT_SET_NO = 999
REV_AT_EPOCH   = 533
BSTAR          = .73006E-3
MEAN_MOTION_DOT = .110398E-2
MEAN_MOTION_DDOT = 0

CCSDS_OMM_VERS = 2.0
CREATION_DATE  = 
ORIGINATOR     = 

OBJECT_NAME    = STARLINK-36281
OBJECT_ID      = 2026-018S
CENTER_NAME    = EARTH
REF_FRAME      = TEME
TIME_SYSTEM    = UTC
MEAN_ELEMENT_THEORY = SGP/SGP4

EPOCH          = 2026-02-25T04:11:50.426016
MEAN_MOTION    = 15.80861122
ECCENTRICITY   = .0001376
INCLINATION    = 97.2860
RA_OF_ASC_NODE = 121.4554
ARG_OF_PERICENTER = 64.5083
MEAN_ANOMALY   = 295.6328

EPHEMERIS_TYPE = 0
CLASSIFICATION_TYPE = U
NORAD_CAT_ID   = 67605
ELEMENT_SET_NO = 999
REV_AT_EPOCH   = 534
BSTAR          = .39976E-3
MEAN_MOTION_DOT = .77272E-3
MEAN_MOTION_DDOT = 0

CCSDS_OMM_VERS = 2.0
CREATION_DATE  = 
ORIGINATOR     = 

OBJECT_NAME    = STARLINK-35843
OBJECT_ID      = 2026-018T
CENTER_NAME    = EARTH
REF_FRAME      = TEME
TIME_SYSTEM    = UTC
MEAN_ELEMENT_THEORY = SGP/SGP4

EPOCH          = 2026-02-25T03:34:36.142752
MEAN_MOTION    = 15.75183370
ECCENTRICITY   = .0001784
INCLINATION    = 97.2847
RA_OF_ASC_NODE = 121.3386
ARG_OF_PERICENTER = 92.4088
MEAN_ANOMALY   = 267.7382

EPHEMERIS_TYPE = 0
CLASSIFICATION_TYPE = U
NORAD_CAT_ID   = 67606
ELEMENT_SET_NO = 999
REV_AT_EPOCH   = 533
BSTAR          = .16025E-2
MEAN_MOTION_DOT = .245837E-2
MEAN_MOTION_DDOT = 0

CCSDS_OMM_VERS = 2.0
CREATION_DATE  = 
ORIGINATOR     = 

OBJECT_NAME    = STARLINK-36351
OBJECT_ID      = 2026-018U
CENTER_NAME    = EARTH
REF_FRAME      = TEME
TIME_SYSTEM    = UTC
MEAN_ELEMENT_THEORY = SGP/SGP4

EPOCH          = 2026-02-25T03:14:47.082624
MEAN_MOTION    = 15.75235339
ECCENTRICITY   = .0000426
INCLINATION    = 97.2849
RA_OF_ASC_NODE = 121.3584
ARG_OF_PERICENTER = 2.1918
MEAN_ANOMALY   = 357.9349

EPHEMERIS_TYPE = 0
CLASSIFICATION_TYPE = U
NORAD_CAT_ID   = 67607
ELEMENT_SET_NO = 999
REV_AT_EPOCH   = 533
BSTAR          = .9177E-3
MEAN_MOTION_DOT = .139277E-2
MEAN_MOTION_DDOT = 0

CCSDS_OMM_VERS = 2.0
CREATION_DATE  = 
ORIGINATOR     = 

OBJECT_NAME    = STARLINK-36411
OBJECT_ID      = 2026-018V
CENTER_NAME    = EARTH
REF_FRAME      = TEME
TIME_SYSTEM    = UTC
MEAN_ELEMENT_THEORY = SGP/SGP4

EPOCH          = 2026-02-25T02:40:13.884384
MEAN_MOTION    = 15.75237281
ECCENTRICITY   = .0001574
INCLINATION    = 97.2855
RA_OF_ASC_NODE = 121.3906
ARG_OF_PERICENTER = 80.1876
MEAN_ANOMALY   = 279.9567

EPHEMERIS_TYPE = 0
CLASSIFICATION_TYPE = U
NORAD_CAT_ID   = 67608
ELEMENT_SET_NO = 999
REV_AT_EPOCH   = 533
BSTAR          = .83107E-3
MEAN_MOTION_DOT = .125932E-2
MEAN_MOTION_DDOT = 0

CCSDS_OMM_VERS = 2.0
CREATION_DATE  = 
ORIGINATOR     = 

OBJECT_NAME    = STARLINK-36312
OBJECT_ID      = 2026-018W
CENTER_NAME    = EARTH
REF_FRAME      = TEME
TIME_SYSTEM    = UTC
MEAN_ELEMENT_THEORY = SGP/SGP4

EPOCH          = 2026-02-25T03:11:44.197152
MEAN_MOTION    = 15.75304007
ECCENTRICITY   = .0001262
INCLINATION    = 97.2863
RA_OF_ASC_NODE = 121.3617
ARG_OF_PERICENTER = 116.2091
MEAN_ANOMALY   = 243.9304

EPHEMERIS_TYPE = 0
CLASSIFICATION_TYPE = U
NORAD_CAT_ID   = 67609
ELEMENT_SET_NO = 999
REV_AT_EPOCH   = 533
BSTAR          = .15822E-2
MEAN_MOTION_DOT = .243928E-2
MEAN_MOTION_DDOT = 0

CCSDS_OMM_VERS = 2.0
CREATION_DATE  = 
ORIGINATOR     = 

OBJECT_NAME    = STARLINK-36387
OBJECT_ID      = 2026-018X
CENTER_NAME    = EARTH
REF_FRAME      = TEME
TIME_SYSTEM    = UTC
MEAN_ELEMENT_THEORY = SGP/SGP4

EPOCH          = 2026-02-25T04:00:37.027008
MEAN_MOTION    = 15.80898387
ECCENTRICITY   = .0002288
INCLINATION    = 97.2861
RA_OF_ASC_NODE = 121.4667
ARG_OF_PERICENTER = 106.1955
MEAN_ANOMALY   = 253.9565

EPHEMERIS_TYPE = 0
CLASSIFICATION_TYPE = U
NORAD_CAT_ID   = 67610
ELEMENT_SET_NO = 999
REV_AT_EPOCH   = 534
BSTAR          = .3278E-3
MEAN_MOTION_DOT = .6335E-3
MEAN_MOTION_DDOT = 0

CCSDS_OMM_VERS = 2.0
CREATION_DATE  = 
ORIGINATOR     = 

OBJECT_NAME    = STARLINK-36636
OBJECT_ID      = 2026-018Y
CENTER_NAME    = EARTH
REF_FRAME      = TEME
TIME_SYSTEM    = UTC
MEAN_ELEMENT_THEORY = SGP/SGP4

EPOCH          = 2026-02-25T04:19:19.877088
MEAN_MOTION    = 15.75173599
ECCENTRICITY   = .0002233
INCLINATION    = 97.2854
RA_OF_ASC_NODE = 121.4457
ARG_OF_PERICENTER = 108.3629
MEAN_ANOMALY   = 251.7879

EPHEMERIS_TYPE = 0
CLASSIFICATION_TYPE = U
NORAD_CAT_ID   = 67611
ELEMENT_SET_NO = 999
REV_AT_EPOCH   = 534
BSTAR          = .164E-2
MEAN_MOTION_DOT = .251662E-2
MEAN_MOTION_DDOT = 0

