STARLINK-36640          
1 67600U 26018M   26056.16243605  .00043329  00000+0  28933-3 0  9990
2 67600  97.2852 121.3199 0001344  72.7306 287.4106 15.75235043  5331
STARLINK-36635          
1 67601U 26018N   26056.13067905  .00243883  00000+0  15853-2 0  9998
2 67601  97.2846 121.3643 0002592 119.1658 240.9867 15.75253136  5332
STARLINK-36631          
1 67602U 26018P   26056.16668981 -.00047293  00000+0 -31754-3 0  9991
2 67602  97.2847 121.4245 0001417  84.4727 165.7121 15.75219766  5337
STARLINK-36626          
1 67603U 26018Q   26056.13703078  .00165845  00000+0  10879-2 0  9992
2 67603  97.2851 121.3566 0001048  75.8967 284.2414 15.75262456  5334
STARLINK-36605          
1 67604U 26018R   26056.15467590  .00110398  00000+0  73006-3 0  9996
2 67604  97.2850 121.3302 0001535  78.4149 281.7288 15.75234987  5333
STARLINK-36281          
1 67605U 26018S   26056.17488919  .00077272  00000+0  39976-3 0  9998
2 67605  97.2860 121.4554 0001376  64.5083 295.6328 15.80861122  5344
STARLINK-35843          
1 67606U 26018T   26056.14902943  .00245837  00000+0  16025-2 0  9997
2 67606  97.2847 121.3386 0001784  92.4088 267.7382 15.75183370  5335
STARLINK-36351          
1 67607U 26018U   26056.13526716  .00139277  00000+0  91770-3 0  9998
2 67607  97.2849 121.3584 0000426   2.1918 357.9349 15.75235339  5338
STARLINK-36411          
1 67608U 26018V   26056.11127181  .00125932  00000+0  83107-3 0  9998
2 67608  97.2855 121.3906 0001574  80.1876 279.9567 15.75237281  5331
STARLINK-36312          
1 67609U 26018W   26056.13315043  .00243928  00000+0  15822-2 0  9991
2 67609  97.2863 121.3617 0001262 116.2091 243.9304 15.75304007  5335
STARLINK-36387          
1 67610U 26018X   26056.16709522  .00063350  00000+0  32780-3 0  9997
2 67610  97.2861 121.4667 0002288 106.1955 253.9565 15.80898387  5343
STARLINK-36636          
1 67611U 26018Y   26056.18009117  .00251662  00000+0  16400-2 0  9998
2 67611  97.2854 121.4457 0002233 108.3629 251.7879 15.75173599  5344
